[
  {
    "id": 1001,
    "placeName": "三井住友銀行渋谷支店前",
    "placeCategory": "roadside",
    "address": "東京都渋谷区宇田川町20-2",
    "lat": 35.6608601,
    "lng": 139.700261,
    "image": {
      "imageSrc": "https://github.com/buuibuui/SEVENTEEN-visited-map/blob/main/public/images/1001.jpeg?raw=true",
      "imageRef": "twitter"
    },
    "members": [
      "Jeonghan"
    ]
  },
  {
    "id": 1002,
    "placeName": "とんかつ檍大門店",
    "placeCategory": "restaurant",
    "address": "東京都港区浜松町1-11-12",
    "lat": 35.6588233,
    "lng": 139.755709,
    "image": {
      "imageSrc": "https://github.com/buuibuui/SEVENTEEN-visited-map/blob/main/public/images/1002.jpeg?raw=true",
      "imageRef": "twitter"
    },
    "members": [
      "Seungkwan"
    ]
  },
  {
    "id": 1003,
    "placeName": "原宿のJunK NAIL SHOP付近",
    "placeCategory": "roadside",
    "address": "東京都渋谷区神宮前4-28-4",
    "lat": 35.6694257,
    "lng": 139.7073225,
    "image": {
      "imageSrc": "https://github.com/buuibuui/SEVENTEEN-visited-map/blob/main/public/images/1003.jpeg?raw=true",
      "imageRef": "twitter"
    },
    "members": [
      "Hoshi"
    ]
  },
  {
    "id": 1004,
    "placeName": "トレーディングミュージアム・コムデギャルソン",
    "placeCategory": "museum",
    "address": "東京都渋谷区神宮前5-10-1",
    "lat": 35.6674536,
    "lng": 139.7068537,
    "image": {
      "imageSrc": "https://github.com/buuibuui/SEVENTEEN-visited-map/blob/main/public/images/1004.jpeg?raw=true",
      "imageRef": "twitter"
    },
    "members": [
      "Vernon"
    ]
  },
  {
    "id": 1005,
    "placeName": "芝公園",
    "placeCategory": "park",
    "address": "東京都港区芝公園4-10-17",
    "lat": 35.6533671,
    "lng": 139.7493065,
    "image": {
      "imageSrc": "https://github.com/buuibuui/SEVENTEEN-visited-map/blob/main/public/images/1005.jpeg?raw=true",
      "imageRef": "twitter"
    },
    "members": [
      "Wonwoo",
      "Dokyeom",
      "Seungkwan"
    ]
  },
  {
    "id": 1006,
    "placeName": "三鷹の森ジブリ美術館",
    "placeCategory": "museum",
    "address": "東京都三鷹市下連雀1-1-83",
    "lat": 35.695601,
    "lng": 139.5711994,
    "image": {
      "imageSrc": "https://github.com/buuibuui/SEVENTEEN-visited-map/blob/main/public/images/1006.jpeg?raw=true",
      "imageRef": "instagram"
    },
    "members": [
      "Jun",
      "Vernon"
    ]
  },
  {
    "id": 1007,
    "placeName": "港区のサンモリッツ名花堂",
    "placeCategory": "roadside",
    "address": "東京都港区元麻布3-11-6",
    "lat": 35.6565933,
    "lng": 139.7330901,
    "image": {
      "imageSrc": "https://github.com/buuibuui/SEVENTEEN-visited-map/blob/main/public/images/1007.jpeg?raw=true",
      "imageRef": "instagram"
    },
    "members": [
      "Mingyu"
    ]
  },
  {
    "id": 1008,
    "placeName": "一蘭渋谷店",
    "placeCategory": "restaurant",
    "address": "東京都渋谷区神南1丁目22-7 岩本ビル B1F",
    "lat": 35.6611144,
    "lng": 139.7010806,
    "image": {
      "imageSrc": "https://github.com/buuibuui/SEVENTEEN-visited-map/blob/main/public/images/1008.jpeg?raw=true",
      "imageRef": "twitter"
    },
    "members": [
      "Jeonghan",
      "Jun"
    ]
  },
  {
    "id": 1009,
    "placeName": "兄夫(ヒョンブ)食堂赤坂店",
    "placeCategory": "restaurant",
    "address": "東京都港区元麻布3-11-6",
    "lat": 35.6565933,
    "lng": 139.7330901,
    "image": {
      "imageSrc": "https://github.com/buuibuui/SEVENTEEN-visited-map/blob/main/public/images/1009.jpeg?raw=true",
      "imageRef": "twitter"
    },
    "members": [
      "Jeonghan",
      "S.Coups"
    ]
  },
  {
    "id": 1010,
    "placeName": "Apple表参道",
    "placeCategory": "others",
    "address": "東京都渋谷区神宮前4丁目2-13",
    "lat": 35.6662037,
    "lng": 139.7109058,
    "image": {
      "imageSrc": "https://github.com/buuibuui/SEVENTEEN-visited-map/blob/main/public/images/1010.jpeg?raw=true",
      "imageRef": "twitter"
    },
    "members": [
      "Jeonghan",
      "Jun",
      "Hoshi"
    ]
  },
  {
    "id": 1011,
    "placeName": "焼肉トラジ恵比寿庵店",
    "placeCategory": "restaurant",
    "address": "東京都渋谷区恵比寿南1-1-10",
    "lat": 35.6464049,
    "lng": 139.7085094,
    "image": {
      "imageSrc": "/images/1011.jpeg",
      "imageRef": "instagram"
    },
    "members": [
      "Jeonghan",
      "Wonwoo",
      "Hoshi"
    ]
  },
  {
    "id": 1012,
    "placeName": "浜松町",
    "placeCategory": "roadside",
    "address": "...",
    "lat": null,
    "lng": null,
    "image": {
      "imageSrc": "/images/1012.jpeg",
      "imageRef": "instagram"
    },
    "members": [
      "S.Coups"
    ]
  },
  {
    "id": 1013,
    "placeName": "原宿表参道ビジョン前の信号",
    "placeCategory": "roadside",
    "address": "東京都渋谷区神宮前6-4-1",
    "lat": 35.6681081,
    "lng": 139.7055372,
    "image": {
      "imageSrc": "/images/1013.jpeg",
      "imageRef": "twitter"
    },
    "members": [
      "Jeonghan"
    ]
  },
  {
    "id": 1014,
    "placeName": "鳴門鯛焼本舗芝大門店",
    "placeCategory": "restaurant",
    "address": "東京都港区芝大門2-4-2",
    "lat": 35.6566636,
    "lng": 139.7543969,
    "image": {
      "imageSrc": "/images/1014.jpeg",
      "imageRef": "instagram"
    },
    "members": [
      "Hoshi"
    ]
  },
  {
    "id": 1015,
    "placeName": "吉祥寺プティット村",
    "placeCategory": "restaurant",
    "address": "東京都武蔵野市吉祥寺本町2-33-2",
    "lat": 35.7046041,
    "lng": 139.5747021,
    "image": {
      "imageSrc": "/images/1015.jpeg",
      "imageRef": "instagram"
    },
    "members": [
      "Jun"
    ]
  },
  {
    "id": 1016,
    "placeName": "東京都庭園美術館",
    "placeCategory": "museum",
    "address": "東京都港区白金台5-21-9",
    "lat": 35.635746,
    "lng": 139.720559,
    "image": {
      "imageSrc": "/images/1016.jpeg",
      "imageRef": "instagram"
    },
    "members": [
      "The8"
    ]
  },
  {
    "id": 1017,
    "placeName": "SHIBUYA109",
    "placeCategory": "others",
    "address": "東京都渋谷区道玄坂2-29-1",
    "lat": 35.6596043,
    "lng": 139.6987104,
    "image": {
      "imageSrc": "/images/1017.jpeg",
      "imageRef": "twitter"
    },
    "members": [
      "Jeonghan"
    ]
  },
  {
    "id": 1018,
    "placeName": "茨城筑波山",
    "placeCategory": "mountain",
    "address": "茨城県つくば市筑波1222",
    "lat": 36.212271,
    "lng": 140.0961143,
    "image": {
      "imageSrc": "/images/1018.jpeg",
      "imageRef": "instagram"
    },
    "members": [
      "The8"
    ]
  },
  {
    "id": 1019,
    "placeName": "AFURI(阿夫利)恵比寿",
    "placeCategory": "restaurant",
    "address": "東京都渋谷区恵比寿1-1-7 117ビル1F",
    "lat": 35.6483503,
    "lng": 139.710943,
    "image": {
      "imageSrc": "/images/1019.jpeg",
      "imageRef": "instagram"
    },
    "members": [
      "Wonwoo",
      "Hoshi"
    ]
  },
  {
    "id": 1020,
    "placeName": "さくら亭",
    "placeCategory": "restaurant",
    "address": "東京都渋谷区神宮前3-20-1",
    "lat": 35.6706181,
    "lng": 139.7083498,
    "image": {
      "imageSrc": "",
      "imageRef": "instagram"
    },
    "members": [
      "Joshua",
      "Dokyeom"
    ]
  },
  {
    "id": 1021,
    "placeName": "根津美術館",
    "placeCategory": "museum",
    "address": "東京都港区南青山6-5-1",
    "lat": 35.6619516,
    "lng": 139.7174865,
    "image": {
      "imageSrc": "/images/1021.jpeg",
      "imageRef": "instagram"
    },
    "members": [
      "Vernon",
      "Dino"
    ]
  },
  {
    "id": 1022,
    "placeName": "公衆電話",
    "placeCategory": "roadside",
    "address": "東京都港区六本木5-16-45",
    "lat": 35.6607077,
    "lng": 139.7349859,
    "image": {
      "imageSrc": "/images/1022.jpeg",
      "imageRef": "instagram"
    },
    "members": [
      "Wonwoo",
      "Hoshi"
    ]
  },
  {
    "id": 1023,
    "placeName": "ラルフローレン表参道",
    "placeCategory": "others",
    "address": "東京都渋谷区神宮前4-25-15",
    "lat": 35.6682196,
    "lng": 139.7073324,
    "image": {
      "imageSrc": "/images/1023.jpeg",
      "imageRef": "instagram"
    },
    "members": [
      "Joshua",
      "Dokyeom"
    ]
  },
  {
    "id": 1024,
    "placeName": "表参道ヒルズ",
    "placeCategory": "roadside",
    "address": "東京都港区神宮前4-12-10",
    "lat": 35.6673179,
    "lng": 139.7085692,
    "image": {
      "imageSrc": "/images/1024.jpeg",
      "imageRef": "instagram"
    },
    "members": [
      "The8"
    ]
  },
  {
    "id": 1025,
    "placeName": "地下駐車場階段",
    "placeCategory": "roadside",
    "address": "東京都港区芝公園4丁目13",
    "lat": 35.6563336,
    "lng": 139.7479592,
    "image": {
      "imageSrc": "/images/1025.jpeg",
      "imageRef": "instagram"
    },
    "members": [
      "Hoshi"
    ]
  },
  {
    "id": 2001,
    "placeName": "室生山上公園芸術の森",
    "placeCategory": "museum",
    "address": "奈良県宇陀市室生181",
    "lat": 35.6563336,
    "lng": 139.7479592,
    "image": {
      "imageSrc": "/images/2001.jpeg",
      "imageRef": "instagram"
    },
    "members": [
      "The8"
    ]
  },
  {
    "id": 2002,
    "placeName": "釣船茶屋ざうお難波本店",
    "placeCategory": "restaurant",
    "address": "大阪府大阪市中央区日本橋1丁目1-13相鉄グランドフレッサ大阪なんばB1F",
    "lat": 34.6683088,
    "lng": 135.5062901,
    "image": {
      "imageSrc": "/images/2002.jpeg",
      "imageRef": "instagram"
    },
    "members": [
      "Jeonghan",
      "Jun"
    ]
  },
  {
    "id": 2003,
    "placeName": "ろばた焼き 柳屋",
    "placeCategory": "restaurant",
    "address": "大阪府大阪市天王寺区下味原町2-17",
    "lat": 34.6656052,
    "lng": 135.5296655,
    "image": {
      "imageSrc": "",
      "imageRef": "instagram"
    },
    "members": [
      "Woozi",
      "Hoshi"
    ]
  },
  {
    "id": 2004,
    "placeName": "梅田のドンキ・namco前",
    "placeCategory": "roadside",
    "address": "大阪府大阪市北区小松原町4-16",
    "lat": 34.7032572,
    "lng": 135.5010406,
    "image": {
      "imageSrc": "/images/2004.jpeg",
      "imageRef": "instagram"
    },
    "members": [
      "Mingyu"
    ]
  },
  {
    "id": 2005,
    "placeName": "お好み焼き 鶴橋風月 本店",
    "placeCategory": "restaurant",
    "address": "大阪市天王寺区下味原町2-18",
    "lat": 34.6656341,
    "lng": 135.5297853,
    "image": {
      "imageSrc": "",
      "imageRef": "instagram"
    },
    "members": [
      "Jeonghan",
      "Joshua",
      "Jun",
      "Woozi",
      "Hoshi",
      "Dokyeom",
      "Seungkwan"
    ]
  },
  {
    "id": 2006,
    "placeName": "通天閣 跳ね出し展望台",
    "placeCategory": "others",
    "address": "大阪府浪速区恵美須東1-18-6",
    "lat": 34.6525256,
    "lng": 135.5063765,
    "image": {
      "imageSrc": "/images/2006.jpeg",
      "imageRef": "instagram"
    },
    "members": [
      "Jun"
    ]
  },
  {
    "id": 2007,
    "placeName": "道頓堀 グリコ前",
    "placeCategory": "roadside",
    "address": "大阪府大阪市中央区道頓堀1丁目10-3",
    "lat": 34.6688627,
    "lng": 135.501073,
    "image": {
      "imageSrc": "/images/2007.jpeg",
      "imageRef": "instagram"
    },
    "members": [
      "S.Coups",
      "Jeonghan",
      "Wonwoo",
      "The8",
      "Dokyeom",
      "Seungkwan"
    ]
  },
  {
    "id": 3001,
    "placeName": "白川公園",
    "placeCategory": "park",
    "address": "愛知県名古屋市中区栄2-17",
    "lat": 35.1640398,
    "lng": 136.901018,
    "image": {
      "imageSrc": "/images/3001.jpeg",
      "imageRef": "instagram"
    },
    "members": [
      "Jeonghan"
    ]
  },
  {
    "id": 3002,
    "placeName": "御園歩道橋",
    "placeCategory": "roadside",
    "address": "",
    "lat": null,
    "lng": null,
    "image": {
      "imageSrc": "/images/3002.jpeg",
      "imageRef": "instagram"
    },
    "members": [
      "Jeonghan",
      "Seungkwan"
    ]
  },
  {
    "id": 3003,
    "placeName": "蓬莱軒(松坂屋店)",
    "placeCategory": "restaurant",
    "address": "愛知県名古屋市中区栄3-30-8 松坂屋名古屋店南館10F",
    "lat": 35.1644823,
    "lng": 136.907916,
    "image": {
      "imageSrc": "/images/3003.jpeg",
      "imageRef": "instagram"
    },
    "members": [
      "Jeonghan"
    ]
  },
  {
    "id": 3004,
    "placeName": "古川美術館分館 爲三郎記念館",
    "placeCategory": "museum",
    "address": "愛知県名古屋市千種区池下町2丁目50番",
    "lat": 35.1688104,
    "lng": 136.9486,
    "image": {
      "imageSrc": "/images/3004.jpeg",
      "imageRef": "instagram"
    },
    "members": [
      "Joshua"
    ]
  },
  {
    "id": 3005,
    "placeName": "大須だもんで",
    "placeCategory": "restaurant",
    "address": "愛知県名古屋市中区大須3-42-26",
    "lat": 35.1580776,
    "lng": 136.9036902,
    "image": {
      "imageSrc": "/images/3005.jpeg",
      "imageRef": "instagram"
    },
    "members": [
      "Seungkwan"
    ]
  },
  {
    "id": 3006,
    "placeName": "納屋橋ゆめ広場",
    "placeCategory": "roadside",
    "address": "愛知県名古屋市中区栄1丁目1",
    "lat": 35.1669379,
    "lng": 136.8921517,
    "image": {
      "imageSrc": "",
      "imageRef": "instagram"
    },
    "members": [
      "Joshua"
    ]
  },
  {
    "id": 3007,
    "placeName": "私はトゥンカロンに恋をした 大須店",
    "placeCategory": "restaurant",
    "address": "名古屋市中区大須3-42-26 文珠小路",
    "lat": 35.1581383,
    "lng": 136.9037634,
    "image": {
      "imageSrc": "/images/3007.jpeg",
      "imageRef": "instagram"
    },
    "members": [
      "Seungkwan"
    ]
  },
  {
    "id": 3008,
    "placeName": "蕎麦屋ふぁろ＊立ち飲み中茂",
    "placeCategory": "restaurant",
    "address": "愛知県名古屋市中村区名駅2丁目43-10",
    "lat": 35.1740171,
    "lng": 136.8838366,
    "image": {
      "imageSrc": "/images/3008.jpeg",
      "imageRef": "instagram"
    },
    "members": [
      "S.Coups",
      "Mingyu"
    ]
  },
  {
    "id": 3009,
    "placeName": "大曽根温泉 湯の城",
    "placeCategory": "others",
    "address": "愛知県名古屋市東区東大曽根町28-7",
    "lat": 35.187755,
    "lng": 136.9339985,
    "image": {
      "imageSrc": "/images/3009.jpeg",
      "imageRef": "weverse"
    },
    "members": [
      "Jeonghan",
      "Wonwoo",
      "Hoshi",
      "Dokyeom",
      "Vernon",
      "Seungkwan"
    ]
  },
  {
    "id": 3010,
    "placeName": "とこなめ招き猫通り",
    "placeCategory": "roadside",
    "address": "愛知県常滑市陶郷町1丁目",
    "lat": 34.8907902,
    "lng": 136.8413301,
    "image": {
      "imageSrc": "/images/3010.jpeg",
      "imageRef": "instagram"
    },
    "members": [
      "Jun"
    ]
  },
  {
    "id": 3011,
    "placeName": "仲ノ町公園",
    "placeCategory": "park",
    "address": "愛知県名古屋市中区栄1-27",
    "lat": 35.1639407,
    "lng": 136.8960165,
    "image": {
      "imageSrc": "/images/3011.jpeg",
      "imageRef": "instagram"
    },
    "members": [
      "Dokyeom"
    ]
  }
]
